NORAD_CAT_ID,OBJECT_NAME,OBJECT_TYPE,EPOCH,MEAN_MOTION,ECCENTRICITY,INCLINATION,RA_OF_ASC_NODE,ARG_OF_PERICENTER,MEAN_ANOMALY,BSTAR,MEAN_MOTION_DOT,MEAN_MOTION_DDOT,TLE_LINE0,TLE_LINE1,TLE_LINE2,SEMIMAJOR_AXIS,PERIOD,APOGEE,PERIGEE,DECAYED
53796.0,STARLINK-4721,PAYLOAD,2024-04-04 10:48:58,15.08822591,0.0001793,53.2192,175.2412,99.5058,260.6136,-8.1046e-05,-1.577e-05,0.0,0 STARLINK-4721,1 53796U 22111Z   24095.45067973 -.00001577  00000-0 -81046-4 0  9993,2 53796  53.2192 175.2412 0001793  99.5058 260.6136 15.08822591 86933,6917.934,95.439,541.039,538.558,0.0
53796.0,STARLINK-4721,PAYLOAD,2024-04-04 21:56:40,15.08833979,0.0001582,53.2177,173.1574,90.5089,269.6085,-2.5362e-05,-6.92e-06,0.0,0 STARLINK-4721,1 53796U 22111Z   24095.91435352 -.00000692  00000-0 -25362-4 0  9990,2 53796  53.2177 173.1574 0001582  90.5089 269.6085 15.08833979 87758,6917.899,95.438,540.858,538.669,0.0
53796.0,STARLINK-4721,PAYLOAD,2024-04-05 04:18:12,15.08832428,0.000129,53.2165,171.9655,79.8335,280.2803,5.7663e-05,6.3e-06,0.0,0 STARLINK-4721,1 53796U 22111Z   24096.17931090  .00000630  00000-0  57663-4 0  9998,2 53796  53.2165 171.9655 0001290  79.8335 280.2803 15.08832428 87048,6917.904,95.438,540.661,538.876,0.0
53796.0,STARLINK-4721,PAYLOAD,2024-04-05 12:15:07,15.08846074,0.0001358,53.2159,170.4805,82.9285,277.1861,0.00014343,1.996e-05,0.0,0 STARLINK-4721,1 53796U 22111Z   24096.51049911  .00001996  00000-0  14343-3 0  9991,2 53796  53.2159 170.4805 0001358  82.9285 277.1861 15.08846074 87092,6917.862,95.437,540.666,538.787,0.0
53796.0,STARLINK-4721,PAYLOAD,2024-04-05 13:50:30,15.08846439,0.0001374,53.216,170.1831,82.6685,277.4464,0.00014391,2.004e-05,0.0,0 STARLINK-4721,1 53796U 22111Z   24096.57673862  .00002004  00000-0  14391-3 0  9999,2 53796  53.2160 170.1831 0001374  82.6685 277.4464 15.08846439 87850,6917.861,95.437,540.676,538.775,0.0
53796.0,STARLINK-4721,PAYLOAD,2024-04-06 08:55:09,15.0882777,0.0001473,53.216,166.6156,85.8704,274.2456,9.1129e-05,1.162e-05,0.0,0 STARLINK-4721,1 53796U 22111Z   24097.37163298  .00001162  00000-0  91129-4 0  9994,2 53796  53.2160 166.6156 0001473  85.8704 274.2456 15.08827770 87221,6917.918,95.438,540.802,538.764,0.0
53796.0,STARLINK-4721,PAYLOAD,2024-04-06 13:41:18,15.08828827,0.0001548,53.2156,165.7245,68.9738,291.1419,0.00010958,1.456e-05,0.0,0 STARLINK-4721,1 53796U 22111Z   24097.57035336  .00001456  00000-0  10958-3 0  9993,2 53796  53.2156 165.7245 0001548  68.9738 291.1419 15.08828827 88005,6917.915,95.438,540.85,538.709,0.0
53796.0,STARLINK-4721,PAYLOAD,2024-04-06 21:38:14,15.08826757,0.0001756,53.2158,164.2374,66.1001,294.0175,0.0002093,3.043e-05,0.0,0 STARLINK-4721,1 53796U 22111Z   24097.90155309  .00003043  00000-0  20930-3 0  9998,2 53796  53.2158 164.2374 0001756  66.1001 294.0175 15.08826757 88054,6917.921,95.438,541.001,538.571,0.0
53796.0,STARLINK-4721,PAYLOAD,2024-04-07 13:32:04,15.08856022,0.000155,53.2149,161.263,79.2677,280.8489,-0.00022545,-3.876e-05,0.0,0 STARLINK-4721,1 53796U 22111Z   24098.56394570 -.00003876  00000-0 -22545-3 0  9996,2 53796  53.2149 161.2630 0001550  79.2677 280.8489 15.08856022 88152,6917.831,95.437,540.769,538.624,0.0
53796.0,STARLINK-4721,PAYLOAD,2024-04-07 21:29:00,15.08842058,0.0001509,53.2168,159.7757,82.8898,277.2266,-5.5906e-06,-3.77e-06,0.0,0 STARLINK-4721,1 53796U 22111Z   24098.89514637 -.00000377  00000-0 -55906-5 0  9992,2 53796  53.2168 159.7757 0001509  82.8898 277.2266 15.08842058 88207,6917.874,95.437,540.783,538.695,0.0
53796.0,STARLINK-4721,PAYLOAD,2024-04-08 03:50:33,15.08840374,0.0001509,53.2162,158.5871,80.9011,279.2151,6.8976e-06,-1.78e-06,0.0,0 STARLINK-4721,1 53796U 22111Z   24099.16010711 -.00000178  00000-0  68976-5 0  9996,2 53796  53.2162 158.5871 0001509  80.9011 279.2151 15.08840374 87495,6917.879,95.438,540.788,538.7,0.0
53796.0,STARLINK-4721,PAYLOAD,2024-04-08 10:12:05,15.08841063,0.0001496,53.2154,157.397,82.7075,277.4088,1.5209e-05,-4.6e-07,0.0,0 STARLINK-4721,1 53796U 22111Z   24099.42506590 -.00000046  00000-0  15209-4 0  9994,2 53796  53.2154 157.3970 0001496  82.7075 277.4088 15.08841063 88281,6917.877,95.437,540.777,538.707,0.0
53796.0,STARLINK-4721,PAYLOAD,2024-04-08 21:19:47,15.08840458,0.0001492,53.2156,155.3156,82.3471,277.769,-8.29e-08,-2.89e-06,0.0,0 STARLINK-4721,1 53796U 22111Z   24099.88874632 -.00000289  00000-0 -82900-7 0  9994,2 53796  53.2156 155.3156 0001492  82.3471 277.7690 15.08840458 88356,6917.879,95.438,540.776,538.712,0.0
53796.0,STARLINK-4721,PAYLOAD,2024-04-09 10:02:53,15.08835322,0.0001546,53.2162,152.9357,89.7186,270.3983,-5.2227e-06,-3.71e-06,0.0,0 STARLINK-4721,1 53796U 22111Z   24100.41867020 -.00000371  00000-0 -52227-5 0  9998,2 53796  53.2162 152.9357 0001546  89.7186 270.3983 15.08835322 87686,6917.895,95.438,540.829,538.69,0.0
53796.0,STARLINK-4721,PAYLOAD,2024-04-10 13:04:26,15.08837133,0.0001529,53.2168,147.8804,91.0588,269.058,-1.8751e-05,-5.86e-06,0.0,0 STARLINK-4721,1 53796U 22111Z   24101.54475029 -.00000586  00000-0 -18751-4 0  9998,2 53796  53.2168 147.8804 0001529  91.0588 269.0580 15.08837133 87854,6917.889,95.438,540.812,538.696,0.0
53796.0,STARLINK-4721,PAYLOAD,2024-04-11 09:44:27,15.0883353,0.0001408,53.217,144.0151,89.3437,270.7717,2.0851e-05,4.4e-07,0.0,0 STARLINK-4721,1 53796U 22111Z   24102.40587221  .00000044  00000-0  20851-4 0  9993,2 53796  53.2170 144.0151 0001408  89.3437 270.7717 15.08833530 88736,6917.9,95.438,540.739,538.791,0.0
53796.0,STARLINK-4721,PAYLOAD,2024-04-11 19:16:46,15.08835894,0.000139,53.2169,142.2308,88.3009,271.8142,-1.6105e-06,-3.14e-06,0.0,0 STARLINK-4721,1 53796U 22111Z   24102.80331238 -.00000314  00000-0 -16105-5 0  9992,2 53796  53.2169 142.2308 0001390  88.3009 271.8142 15.08835894 88045,6917.893,95.438,540.72,538.796,0.0
53796.0,STARLINK-4721,PAYLOAD,2024-04-12 11:10:37,15.08833554,0.0001476,53.2174,139.2579,90.1633,269.9528,2.538e-07,-2.84e-06,0.0,0 STARLINK-4721,1 53796U 22111Z   24103.46571619 -.00000284  00000-0  25380-6 0  9995,2 53796  53.2174 139.2579 0001476  90.1633 269.9528 15.08833554 88896,6917.9,95.438,540.786,538.744,0.0
53796.0,STARLINK-4721,PAYLOAD,2024-04-13 01:29:05,15.0883759,0.0001474,53.2177,136.5818,89.7002,270.4159,1.8081e-05,0.0,0.0,0 STARLINK-4721,1 53796U 22111Z   24104.06187409 -.00000000  00000-0  18081-4 0  9996,2 53796  53.2177 136.5818 0001474  89.7002 270.4159 15.08837590 88236,6917.888,95.438,540.772,538.733,0.0
53796.0,STARLINK-4721,PAYLOAD,2024-04-13 11:01:25,15.08832673,0.0001441,53.2168,134.7974,88.9269,271.1888,5.1155e-06,-2.07e-06,0.0,0 STARLINK-4721,1 53796U 22111Z   24104.45931846 -.00000207  00000-0  51155-5 0  9990,2 53796  53.2168 134.7974 0001441  88.9269 271.1888 15.08832673 89043,6917.903,95.438,540.765,538.771,0.0
53796.0,STARLINK-4721,PAYLOAD,2024-04-14 10:52:11,15.08838316,0.0001378,53.2163,130.3357,87.3395,272.7755,2.8987e-05,1.73e-06,0.0,0 STARLINK-4721,1 53796U 22111Z   24105.45291610  .00000173  00000-0  28987-4 0  9996,2 53796  53.2163 130.3357 0001378  87.3395 272.7755 15.08838316 88440,6917.886,95.438,540.704,538.797,0.0
53796.0,STARLINK-4721,PAYLOAD,2024-04-15 07:32:12,15.08840446,0.0001412,53.2162,126.4703,85.1154,274.9999,5.063e-05,5.18e-06,0.0,0 STARLINK-4721,1 53796U 22111Z   24106.31403350  .00000518  00000-0  50630-4 0  9991,2 53796  53.2162 126.4703 0001412  85.1154 274.9999 15.08840446 89327,6917.879,95.438,540.721,538.767,0.0
53796.0,STARLINK-4721,PAYLOAD,2024-04-15 18:39:54,15.0883842,0.000134,53.2158,124.389,90.6701,269.4445,3.8003e-05,3.17e-06,0.0,0 STARLINK-4721,1 53796U 22111Z   24106.77771472  .00000317  00000-0  38003-4 0  9991,2 53796  53.2158 124.3890 0001340  90.6701 269.4445 15.08838420 89396,6917.885,95.438,540.677,538.823,0.0
53796.0,STARLINK-4721,PAYLOAD,2024-04-16 05:47:35,15.08849809,0.0001268,53.2159,122.3062,88.1793,271.9344,7.1069e-05,8.44e-06,0.0,0 STARLINK-4721,1 53796U 22111Z   24107.24138464  .00000844  00000-0  71069-4 0  9996,2 53796  53.2159 122.3062 0001268  88.1793 271.9344 15.08849809 88712,6917.85,95.437,540.593,538.838,0.0
53796.0,STARLINK-4721,PAYLOAD,2024-04-16 07:22:58,15.08849842,0.0001284,53.2159,122.0085,88.7883,271.3256,7.2448e-05,8.66e-06,0.0,0 STARLINK-4721,1 53796U 22111Z   24107.30762411  .00000866  00000-0  72448-4 0  9994,2 53796  53.2159 122.0085 0001284  88.7883 271.3256 15.08849842 89475,6917.85,95.437,540.604,538.827,0.0
53796.0,STARLINK-4721,PAYLOAD,2024-04-16 20:06:04,15.08840459,0.0001243,53.2151,119.6299,87.3112,272.8023,-2.0872e-05,-6.2e-06,0.0,0 STARLINK-4721,1 53796U 22111Z   24107.83755143 -.00000620  00000-0 -20872-4 0  9990,2 53796  53.2151 119.6299 0001243  87.3112 272.8023 15.08840459 88800,6917.879,95.438,540.604,538.884,0.0
53796.0,STARLINK-4721,PAYLOAD,2024-04-17 10:24:32,15.08839913,0.0001222,53.2161,116.954,88.926,271.1872,1.4991e-05,-4.9e-07,0.0,0 STARLINK-4721,1 53796U 22111Z   24108.43370966 -.00000049  00000-0  14991-4 0  9992,2 53796  53.2161 116.9540 0001222  88.9260 271.1872 15.08839913 89648,6917.881,95.438,540.591,538.9,0.0
53796.0,STARLINK-4721,PAYLOAD,2024-04-18 03:53:48,15.088279,0.0001214,53.2166,113.6866,89.8142,270.299,-0.00012967,-2.35e-05,0.0,0 STARLINK-4721,1 53796U 22111Z   24109.16236670 -.00002350  00000-0 -12967-3 0  9994,2 53796  53.2166 113.6866 0001214  89.8142 270.2990 15.08827900 89002,6917.917,95.438,540.622,538.943,0.0
53796.0,STARLINK-4721,PAYLOAD,2024-04-18 07:04:34,15.0883121,0.0001637,53.2172,113.0895,101.8946,258.223,-7.6127e-05,-1.499e-05,0.0,0 STARLINK-4721,1 53796U 22111Z   24109.29484326 -.00001499  00000-0 -76127-4 0  9993,2 53796  53.2172 113.0895 0001637 101.8946 258.2230 15.08831210 89777,6917.907,95.438,540.905,538.64,0.0
53796.0,STARLINK-4721,PAYLOAD,2024-04-19 05:19:57,15.08840603,0.0001497,53.2167,108.9233,118.9402,241.1741,3.9147e-05,3.35e-06,0.0,0 STARLINK-4721,1 53796U 22111Z   24110.22219347  .00000335  00000-0  39147-4 0  9994,2 53796  53.2167 108.9233 0001497 118.9402 241.1741 15.08840603 89167,6917.879,95.438,540.779,538.708,0.0
